[{"OBJECT_NAME":"NOAA 21 (JPSS-2)","OBJECT_ID":"2022-150A","EPOCH":"2026-03-09T22:24:21.794976","MEAN_MOTION":14.19552367,"ECCENTRICITY":0.00026632,"INCLINATION":98.7554,"RA_OF_ASC_NODE":9.1966,"ARG_OF_PERICENTER":105.7668,"MEAN_ANOMALY":254.3802,"EPHEMERIS_TYPE":0,"CLASSIFICATION_TYPE":"U","NORAD_CAT_ID":54234,"ELEMENT_SET_NO":999,"REV_AT_EPOCH":17246,"BSTAR":8.7164891e-5,"MEAN_MOTION_DOT":1.4e-6,"MEAN_MOTION_DDOT":0},{"OBJECT_NAME":"SL-14 DEB","OBJECT_ID":"1987-068DA","EPOCH":"2026-02-25T13:59:04.079904","MEAN_MOTION":14.17358469,"ECCENTRICITY":0.00119363,"INCLINATION":82.5391,"RA_OF_ASC_NODE":162.0072,"ARG_OF_PERICENTER":29.5839,"MEAN_ANOMALY":32.6913,"EPHEMERIS_TYPE":0,"CLASSIFICATION_TYPE":"U","NORAD_CAT_ID":39974,"ELEMENT_SET_NO":999,"REV_AT_EPOCH":60207,"BSTAR":0.0013681464,"MEAN_MOTION_DOT":2.784e-5,"MEAN_MOTION_DDOT":0}]
